NORAD_CAT_ID,OBJECT_NAME,OBJECT_TYPE,EPOCH,MEAN_MOTION,ECCENTRICITY,INCLINATION,RA_OF_ASC_NODE,ARG_OF_PERICENTER,MEAN_ANOMALY,BSTAR,MEAN_MOTION_DOT,MEAN_MOTION_DDOT,TLE_LINE0,TLE_LINE1,TLE_LINE2,SEMIMAJOR_AXIS,PERIOD,APOGEE,PERIGEE,DECAYED
54176.0,STARLINK-5154,PAYLOAD,2023-01-26 10:43:11,15.0884586,0.0001163,53.2192,73.7446,87.8102,272.3024,0.00012726,1.738e-05,0.0,0 STARLINK-5154,1 54176U 22141V   23026.44665542  .00001738  00000-0  12726-3 0  9992,2 54176  53.2192  73.7446 0001163  87.8102 272.3024 15.08845860 14027,6917.861999999999,95.437,540.5319999999999,538.923,0.0
54176.0,STARLINK-5154,PAYLOAD,2023-01-27 02:37:02,15.08830259,8.93e-05,53.218,70.7726,63.5148,296.5936,0.00013927,1.929e-05,0.0,0 STARLINK-5154,1 54176U 22141V   23027.10906247  .00001929  00000-0  13927-3 0  9992,2 54176  53.2180  70.7726 0000893  63.5148 296.5936 15.08830259 14129,6917.91,95.438,540.393,539.1569999999999,0.0
54176.0,STARLINK-5154,PAYLOAD,2023-01-27 08:58:35,15.08839329,0.0001447,53.2188,69.581,92.2611,267.8547,3.0876e-05,2.03e-06,0.0,0 STARLINK-5154,1 54176U 22141V   23027.37402226  .00000203  00000-0  30876-4 0  9996,2 54176  53.2188  69.5810 0001447  92.2611 267.8547 15.08839329 14167,6917.882,95.438,540.748,538.746,0.0
54176.0,STARLINK-5154,PAYLOAD,2023-01-27 20:06:17,15.08837189,0.0001426999999999,53.2179,67.5005,88.3426,271.7729,-3.8746e-05,-9.04e-06,0.0,0 STARLINK-5154,1 54176U 22141V   23027.83770619 -.00000904  00000-0 -38746-4 0  9995,2 54176  53.2179  67.5005 0001427  88.3426 271.7729 15.08837189 14235,6917.889,95.438,540.741,538.7669999999999,0.0
54176.0,STARLINK-5154,PAYLOAD,2023-01-28 12:00:08,15.08842711,0.0001418,53.2178,64.5246,93.8228,266.2926,-7.3284e-05,-1.454e-05,0.0,0 STARLINK-5154,1 54176U 22141V   23028.50010392 -.00001454  00000-0 -73284-4 0  9992,2 54176  53.2178  64.5246 0001418  93.8228 266.2926 15.08842711 14335,6917.872,95.437,540.718,538.756,0.0
54176.0,STARLINK-5154,PAYLOAD,2023-01-29 08:40:09,15.08844128,0.0001566,53.2177,60.6591,94.8985,265.2186,5.4436e-05,5.79e-06,0.0,0 STARLINK-5154,1 54176U 22141V   23029.36121781  .00000579  00000-0  54436-4 0  9995,2 54176  53.2177  60.6591 0001566  94.8985 265.2186 15.08844128 14464,6917.868,95.437,540.816,538.649,0.0
54176.0,STARLINK-5154,PAYLOAD,2023-01-30 02:09:24,15.08834945,0.0001704,53.2185,57.3874,105.7809,254.3372,4.2723e-05,3.92e-06,0.0,0 STARLINK-5154,1 54176U 22141V   23030.08986358  .00000392  00000-0  42723-4 0  9994,2 54176  53.2185  57.3874 0001704 105.7809 254.3372 15.08834945 14575,6917.896,95.438,540.94,538.582,0.0
54176.0,STARLINK-5154,PAYLOAD,2023-01-30 06:55:33,15.08834156,0.0001635,53.2186,56.4956,104.6783,255.4391,3.35e-05,2.45e-06,0.0,0 STARLINK-5154,1 54176U 22141V   23030.28858479  .00000245  00000-0  33500-4 0  9998,2 54176  53.2186  56.4956 0001635 104.6783 255.4391 15.08834156 14600,6917.898,95.438,540.894,538.632,0.0
54176.0,STARLINK-5154,PAYLOAD,2023-01-30 18:03:15,15.08837274,0.0001594,53.2188,54.4146,121.8503,238.2644,-4.2356e-05,-9.62e-06,0.0,0 STARLINK-5154,1 54176U 22141V   23030.75226517 -.00000962  00000-0 -42356-4 0  9999,2 54176  53.2188  54.4146 0001594 121.8503 238.2644 15.08837274 14677,6917.889,95.438,540.856,538.651,0.0
54176.0,STARLINK-5154,PAYLOAD,2023-01-31 02:00:11,15.08838771,0.0001637,53.2191,52.9279,107.1712,252.9459,-4.5882e-05,-1.018e-05,0.0,0 STARLINK-5154,1 54176U 22141V   23031.08346628 -.00001018  00000-0 -45882-4 0  9992,2 54176  53.2191  52.9279 0001637 107.1712 252.9459 15.08838771 14724,6917.884,95.438,540.882,538.617,0.0
54176.0,STARLINK-5154,PAYLOAD,2023-01-31 17:54:02,15.088387,0.0001515,53.2192,49.9551,101.7577,258.3585,3.6148e-07,-2.82e-06,0.0,0 STARLINK-5154,1 54176U 22141V   23031.74586502 -.00000282  00000-0  36148-6 0  9990,2 54176  53.2192  49.9551 0001515 101.7577 258.3585 15.08838700 14821,6917.884,95.438,540.797,538.701,0.0
54176.0,STARLINK-5154,PAYLOAD,2023-02-01 06:37:08,15.08834561,0.0001534,53.2198,47.5763,102.714,257.4024,1.0679e-05,-1.18e-06,0.0,0 STARLINK-5154,1 54176U 22141V   23032.27578842 -.00000118  00000-0  10679-4 0  9994,2 54176  53.2198  47.5763 0001534 102.7140 257.4024 15.08834561 14902,6917.897,95.438,540.823,538.701,0.0
54176.0,STARLINK-5154,PAYLOAD,2023-02-02 01:41:46,15.08830146,0.000139,53.2212,44.0081,94.3273,265.7878,1.8927e-05,1.3e-07,0.0,0 STARLINK-5154,1 54176U 22141V   23033.07067343  .00000013  00000-0  18927-4 0  9999,2 54176  53.2212  44.0081 0001390  94.3273 265.7878 15.08830146 15025,6917.911,95.438,540.737,538.814,0.0
54176.0,STARLINK-5154,PAYLOAD,2023-02-02 08:03:18,15.08815416,0.0001609,53.2213,42.819,95.0756,265.042,0.00025685,3.799e-05,0.0,0 STARLINK-5154,1 54176U 22141V   23033.33563594  .00003799  00000-0  25685-3 0  9999,2 54176  53.2213  42.8190 0001609  95.0756 265.0420 15.08815416 15063,6917.956,95.439,540.934,538.707,0.0
54176.0,STARLINK-5154,PAYLOAD,2023-02-03 01:32:32,15.08842578,0.0001365,53.2187,39.5468,89.2575,270.8574,6.3345e-05,7.2e-06,0.0,0 STARLINK-5154,1 54176U 22141V   23034.06426539  .00000720  00000-0  63345-4 0  9994,2 54176  53.2187  39.5468 0001365  89.2575 270.8574 15.08842578 15172,6917.873,95.437,540.682,538.793,0.0
54176.0,STARLINK-5154,PAYLOAD,2023-02-03 06:18:40,15.08900728,0.0001034,53.2192,38.6558,97.522,262.589,-0.00059477,-9.757e-05,0.0,0 STARLINK-5154,1 54176U 22141V   23034.26297118 -.00009757  00000-0 -59477-3 0  9996,2 54176  53.2192  38.6558 0001034  97.5220 262.5890 15.08900728 15205,6917.695,95.434,540.275,538.844,0.0
54176.0,STARLINK-5154,PAYLOAD,2023-02-04 10:55:38,15.08845779,0.0001168,53.2188,33.3027,82.3673,277.7452,6.2193e-05,7.02e-06,0.0,0 STARLINK-5154,1 54176U 22141V   23035.45530302  .00000702  00000-0  62193-4 0  9992,2 54176  53.2188  33.3027 0001168  82.3673 277.7452 15.08845779 15380,6917.863,95.437,540.536,538.92,0.0
54176.0,STARLINK-5154,PAYLOAD,2023-02-05 02:49:30,15.08826894,0.0001349,53.2191,30.3297,100.5707,259.5438,4.7383e-05,4.66e-06,0.0,0 STARLINK-5154,1 54176U 22141V   23036.11771455  .00000466  00000-0  47383-4 0  9993,2 54176  53.2191  30.3297 0001349 100.5707 259.5438 15.08826894 15482,6917.92,95.438,540.719,538.852,0.0
54176.0,STARLINK-5154,PAYLOAD,2023-02-05 09:11:02,15.08845878,0.0001316,53.2197,29.1377,107.5668,252.5468,-2.8559e-05,-7.42e-06,0.0,0 STARLINK-5154,1 54176U 22141V   23036.38266503 -.00000742  00000-0 -28559-4 0  9998,2 54176  53.2197  29.1377 0001316 107.5668 252.5468 15.08845878 15524,6917.862,95.437,540.638,538.817,0.0
54176.0,STARLINK-5154,PAYLOAD,2023-02-06 02:40:17,15.08839947,0.0001205,53.2184,25.8662,95.5596,264.5533,-3.1405e-05,-7.88e-06,0.0,0 STARLINK-5154,1 54176U 22141V   23037.11130958 -.00000788  00000-0 -31405-4 0  9998,2 54176  53.2184  25.8662 0001205  95.5596 264.5533 15.08839947 15631,6917.881,95.438,540.579,538.912,0.0
54176.0,STARLINK-5154,PAYLOAD,2023-02-06 09:01:49,15.0884635,0.0001165,53.2189,24.6789,79.4972,280.6152,9.9517e-06,-1.29e-06,0.0,0 STARLINK-5154,1 54176U 22141V   23037.37626458 -.00000129  00000-0  99517-5 0  9998,2 54176  53.2189  24.6789 0001165  79.4972 280.6152 15.08846350 15673,6917.861,95.437,540.532,538.92,0.0
54176.0,STARLINK-5154,PAYLOAD,2023-02-07 08:52:35,15.08858861,0.0001122,53.2189,20.2185,89.1362,270.9759,0.00012272,1.667e-05,0.0,0 STARLINK-5154,1 54176U 22141V   23038.36985056  .00001667  00000-0  12272-3 0  9998,2 54176  53.2189  20.2185 0001122  89.1362 270.9759 15.08858861 15821,6917.823,95.436,540.464,538.912,0.0
54176.0,STARLINK-5154,PAYLOAD,2023-02-08 03:57:14,15.08843182,0.000115,53.2194,16.6501,100.7712,259.341,-3.5774e-06,-3.45e-06,0.0,0 STARLINK-5154,1 54176U 22141V   23039.16474553 -.00000345  00000-0 -35774-5 0  9990,2 54176  53.2194  16.6501 0001150 100.7712 259.3410 15.08843182 15946,6917.871,95.437,540.531,538.94,0.0
54176.0,STARLINK-5154,PAYLOAD,2023-02-08 08:43:21,15.08868019,8.07e-05,53.2187,15.758,90.3894,269.7191,0.00020801,3.027e-05,0.0,0 STARLINK-5154,1 54176U 22141V   23039.36343998  .00003027  00000-0  20801-3 0  9991,2 54176  53.2187  15.7580 0000807  90.3894 269.7191 15.08868019 15978,6917.795,95.436,540.218,539.101,0.0
54176.0,STARLINK-5154,PAYLOAD,2023-02-09 03:48:01,15.08838917,0.0001077,53.219,12.1896,95.6086,264.5029,-0.00013147,-2.379e-05,0.0,0 STARLINK-5154,1 54176U 22141V   23040.15835178 -.00002379  00000-0 -13147-3 0  9992,2 54176  53.2190  12.1896 0001077  95.6086 264.5029 15.08838917 16095,6917.884,95.438,540.494,539.004,0.0
54176.0,STARLINK-5154,PAYLOAD,2023-02-09 06:58:47,15.08839829,0.00012,53.2198,11.5937,79.7288,280.3839,-9.2009e-05,-1.752e-05,0.0,0 STARLINK-5154,1 54176U 22141V   23040.29083173 -.00001752  00000-0 -92009-4 0  9996,2 54176  53.2198  11.5937 0001200  79.7288 280.3839 15.08839829 16118,6917.881,95.438,540.576,538.916,0.0
54176.0,STARLINK-5154,PAYLOAD,2023-02-10 05:14:10,15.08856109,8.9e-05,53.2197,7.4322,100.9986,259.1106,0.00014608,2.039e-05,0.0,0 STARLINK-5154,1 54176U 22141V   23041.21817575  .00002039  00000-0  14608-3 0  9995,2 54176  53.2197   7.4322 0000890 100.9986 259.1106 15.08856109 16251,6917.831,95.437,540.312,539.08,0.0
54176.0,STARLINK-5154,PAYLOAD,2023-02-11 03:29:35,15.08842903,9.75e-05,53.221,3.2676,87.8459,272.2645,0.00010202,1.336e-05,0.0,0 STARLINK-5154,1 54176U 22141V   23042.14554693  .00001336  00000-0  10202-3 0  9992,2 54176  53.2210   3.2676 0000975  87.8459 272.2645 15.08842903 16391,6917.872,95.437,540.411,539.062,0.0
54176.0,STARLINK-5154,PAYLOAD,2023-02-11 05:04:57,15.08851515,0.0001071,53.2191,2.9726,83.5242,276.5872,0.00018613,2.677e-05,0.0,0 STARLINK-5154,1 54176U 22141V   23042.21177912  .00002677  00000-0  18613-3 0  9998,2 54176  53.2191   2.9726 0001071  83.5242 276.5872 15.08851515 16402,6917.845,95.437,540.451,538.969,0.0
54176.0,STARLINK-5154,PAYLOAD,2023-02-11 16:12:40,15.08839514,0.0001052,53.22,0.8906,101.3826,258.7284,-1.9452e-05,-5.97e-06,0.0,0 STARLINK-5154,1 54176U 22141V   23042.67547160 -.00000597  00000-0 -19452-4 0  9998,2 54176  53.2200   0.8906 0001052 101.3826 258.7284 15.08839514 16477,6917.882,95.438,540.475,539.019,0.0
